start=new Date('2022-12-22T00:00:00.000Z').valueOf();
sats=[{"NORAD_CAT_ID":"54163","EPOCH":"2022-12-21T14:00:01.000224","CLASSIFICATION_TYPE":"U","RCS_SIZE":"LARGE","TIME_SYSTEM":"UTC","MEAN_MOTION_DOT":"-0.01142286","ARG_OF_PERICENTER":"93.9855","RA_OF_ASC_NODE":"236.2212","DECAY_DATE":null,"REF_FRAME":"TEME","ELEMENT_SET_NO":"999","EPHEMERIS_TYPE":"0","MEAN_ELEMENT_THEORY":"SGP4","MEAN_ANOMALY":"73.9179","PERIOD":"93.663","ECCENTRICITY":"0.00013100","MEAN_MOTION":"15.37422672","GP_ID":"221120591","MEAN_MOTION_DDOT":"0.0000000000000","INCLINATION":"53.2172","SEMIMAJOR_AXIS":"6831.871","OBJECT_ID":"2022-141G","OBJECT_NAME":"STARLINK-5161","SITE":"AFWTR","TLE_LINE2":"2 54163  53.2172 236.2212 0001310  93.9855  73.9179 15.37422672  1302","FILE":"3716551","CENTER_NAME":"EARTH","COUNTRY_CODE":"US","APOAPSIS":"454.631","PERIAPSIS":"452.841","TLE_LINE1":"1 54163U 22141G   22355.58334491 -.01142286  00000-0 -33615-1 0  9998","BSTAR":"-0.03361500000000","REV_AT_EPOCH":"130","OBJECT_TYPE":"PAYLOAD","LAUNCH_DATE":"2022-10-28"},{"LAUNCH_DATE":"2022-10-28","OBJECT_TYPE":"PAYLOAD","REV_AT_EPOCH":"130","TLE_LINE1":"1 54164U 22141H   22355.58334491 -.01142169  00000-0 -33952-1 0  9993","BSTAR":"-0.03395200000000","PERIAPSIS":"453.747","APOAPSIS":"455.558","COUNTRY_CODE":"US","CENTER_NAME":"EARTH","FILE":"3716551","TLE_LINE2":"2 54164  53.2173 236.2353 0001325 102.1129  58.7465 15.37113304  1301","OBJECT_NAME":"STARLINK-5278","SITE":"AFWTR","OBJECT_ID":"2022-141H","SEMIMAJOR_AXIS":"6832.788","INCLINATION":"53.2173","GP_ID":"221121196","MEAN_MOTION":"15.37113304","MEAN_MOTION_DDOT":"0.0000000000000","ECCENTRICITY":"0.00013250","PERIOD":"93.682","MEAN_ANOMALY":"58.7465","EPHEMERIS_TYPE":"0","MEAN_ELEMENT_THEORY":"SGP4","REF_FRAME":"TEME","DECAY_DATE":null,"ELEMENT_SET_NO":"999","MEAN_MOTION_DOT":"-0.01142169","RA_OF_ASC_NODE":"236.2353","ARG_OF_PERICENTER":"102.1129","TIME_SYSTEM":"UTC","CLASSIFICATION_TYPE":"U","RCS_SIZE":"LARGE","EPOCH":"2022-12-21T14:00:01.000224","NORAD_CAT_ID":"54164"},{"TLE_LINE2":"2 54165  53.2202 245.5778 0001825  58.5720 301.5450 15.08829928  8444","FILE":"3716551","CENTER_NAME":"EARTH","INCLINATION":"53.2202","SEMIMAJOR_AXIS":"6917.911","OBJECT_ID":"2022-141J","OBJECT_NAME":"STARLINK-5279","SITE":"AFWTR","PERIAPSIS":"538.514","TLE_LINE1":"1 54165U 22141J   22355.42587100 -.00001998  00000-0 -10747-3 0  9996","BSTAR":"-0.00010747000000","REV_AT_EPOCH":"844","LAUNCH_DATE":"2022-10-28","OBJECT_TYPE":"PAYLOAD","COUNTRY_CODE":"US","APOAPSIS":"541.039","TIME_SYSTEM":"UTC","MEAN_MOTION_DOT":"-0.00001998","RA_OF_ASC_NODE":"245.5778","ARG_OF_PERICENTER":"58.5720","DECAY_DATE":null,"REF_FRAME":"TEME","ELEMENT_SET_NO":"999","NORAD_CAT_ID":"54165","EPOCH":"2022-12-21T10:13:15.254400","CLASSIFICATION_TYPE":"U","RCS_SIZE":"LARGE","ECCENTRICITY":"0.00018250","MEAN_MOTION":"15.08829928","GP_ID":"221121378","MEAN_MOTION_DDOT":"0.0000000000000","EPHEMERIS_TYPE":"0","MEAN_ELEMENT_THEORY":"SGP4","MEAN_ANOMALY":"301.5450","PERIOD":"95.438"},{"TLE_LINE1":"1 54166U 22141K   22355.58334491 -.01142394  00000-0 -33280-1 0  9999","BSTAR":"-0.03328000000000","PERIAPSIS":"451.899","OBJECT_TYPE":"PAYLOAD","LAUNCH_DATE":"2022-10-28","REV_AT_EPOCH":"130","APOAPSIS":"453.740","COUNTRY_CODE":"US","TLE_LINE2":"2 54166  53.2172 236.2075 0001348 104.3644  70.4417 15.37732039  1304","CENTER_NAME":"EARTH","FILE":"3716551","SEMIMAJOR_AXIS":"6830.955","INCLINATION":"53.2172","OBJECT_NAME":"STARLINK-5280","SITE":"AFWTR","OBJECT_ID":"2022-141K","GP_ID":"221119928","MEAN_MOTION":"15.37732039","MEAN_MOTION_DDOT":"0.0000000000000","ECCENTRICITY":"0.00013480","EPHEMERIS_TYPE":"0","MEAN_ELEMENT_THEORY":"SGP4","PERIOD":"93.644","MEAN_ANOMALY":"70.4417","MEAN_MOTION_DOT":"-0.01142394","ARG_OF_PERICENTER":"104.3644","RA_OF_ASC_NODE":"236.2075","TIME_SYSTEM":"UTC","REF_FRAME":"TEME","DECAY_DATE":null,"ELEMENT_SET_NO":"999","EPOCH":"2022-12-21T14:00:01.000224","NORAD_CAT_ID":"54166","CLASSIFICATION_TYPE":"U","RCS_SIZE":"LARGE"},{"MEAN_MOTION":"15.08821589","GP_ID":"221120139","MEAN_MOTION_DDOT":"0.0000000000000","ECCENTRICITY":"0.00009410","PERIOD":"95.439","MEAN_ANOMALY":"272.9101","EPHEMERIS_TYPE":"0","MEAN_ELEMENT_THEORY":"SGP4","DECAY_DATE":null,"REF_FRAME":"TEME","ELEMENT_SET_NO":"999","MEAN_MOTION_DOT":"0.00002161","ARG_OF_PERICENTER":"87.1999","RA_OF_ASC_NODE":"245.4442","TIME_SYSTEM":"UTC","CLASSIFICATION_TYPE":"U","RCS_SIZE":"LARGE","EPOCH":"2022-12-21T09:42:48.627072","NORAD_CAT_ID":"54167","LAUNCH_DATE":"2022-10-28","OBJECT_TYPE":"PAYLOAD","REV_AT_EPOCH":"844","TLE_LINE1":"1 54167U 22141L   22355.40472948  .00002161  00000-0  15391-3 0  9990","BSTAR":"0.00015391000000","PERIAPSIS":"539.151","APOAPSIS":"540.453","COUNTRY_CODE":"US","CENTER_NAME":"EARTH","FILE":"3716551","TLE_LINE2":"2 54167  53.2174 245.4442 0000941  87.1999 272.9101 15.08821589  8444","OBJECT_NAME":"STARLINK-5243","SITE":"AFWTR","OBJECT_ID":"2022-141L","SEMIMAJOR_AXIS":"6917.937","INCLINATION":"53.2174"},{"ELEMENT_SET_NO":"999","REF_FRAME":"TEME","DECAY_DATE":null,"ARG_OF_PERICENTER":"94.9800","RA_OF_ASC_NODE":"236.1985","MEAN_MOTION_DOT":"-0.01105046","TIME_SYSTEM":"UTC","RCS_SIZE":"LARGE","CLASSIFICATION_TYPE":"U","EPOCH":"2022-12-21T14:00:01.000224","NORAD_CAT_ID":"54168","MEAN_MOTION_DDOT":"0.0000000000000","GP_ID":"221120803","MEAN_MOTION":"15.37999905","ECCENTRICITY":"0.00013950","PERIOD":"93.628","MEAN_ANOMALY":"87.5334","MEAN_ELEMENT_THEORY":"SGP4","EPHEMERIS_TYPE":"0","CENTER_NAME":"EARTH","FILE":"3716551","TLE_LINE2":"2 54168  53.2140 236.1985 0001395  94.9800  87.5334 15.37999905  1304","SITE":"AFWTR","OBJECT_NAME":"STARLINK-5245","OBJECT_ID":"2022-141M","SEMIMAJOR_AXIS":"6830.161","INCLINATION":"53.2140","LAUNCH_DATE":"2022-10-28","OBJECT_TYPE":"PAYLOAD","REV_AT_EPOCH":"130","BSTAR":"-0.03181300000000","TLE_LINE1":"1 54168U 22141M   22355.58334491 -.01105046  00000-0 -31813-1 0  9994","PERIAPSIS":"451.074","APOAPSIS":"452.979","COUNTRY_CODE":"US"},{"APOAPSIS":"455.002","COUNTRY_CODE":"US","TLE_LINE1":"1 54169U 22141N   22355.58334491 -.01138210  00000-0 -33642-1 0  9996","BSTAR":"-0.03364200000000","PERIAPSIS":"453.322","LAUNCH_DATE":"2022-10-28","OBJECT_TYPE":"PAYLOAD","REV_AT_EPOCH":"130","SEMIMAJOR_AXIS":"6832.297","INCLINATION":"53.2174","OBJECT_NAME":"STARLINK-5282","SITE":"AFWTR","OBJECT_ID":"2022-141N","TLE_LINE2":"2 54169  53.2174 236.0102 0001229  85.4394 190.8043 15.37278854  1309","CENTER_NAME":"EARTH","FILE":"3716551","EPHEMERIS_TYPE":"0","MEAN_ELEMENT_THEORY":"SGP4","PERIOD":"93.672","MEAN_ANOMALY":"190.8043","MEAN_MOTION":"15.37278854","GP_ID":"221120985","MEAN_MOTION_DDOT":"0.0000000000000","ECCENTRICITY":"0.00012290","EPOCH":"2022-12-21T14:00:01.000224","NORAD_CAT_ID":"54169","CLASSIFICATION_TYPE":"U","RCS_SIZE":"LARGE","MEAN_MOTION_DOT":"-0.01138210","ARG_OF_PERICENTER":"85.4394","RA_OF_ASC_NODE":"236.0102","TIME_SYSTEM":"UTC","REF_FRAME":"TEME","DECAY_DATE":null,"ELEMENT_SET_NO":"999"},{"ELEMENT_SET_NO":"999","REF_FRAME":"TEME","DECAY_DATE":null,"TIME_SYSTEM":"UTC","ARG_OF_PERICENTER":"125.8448","RA_OF_ASC_NODE":"234.6165","MEAN_MOTION_DOT":"-0.01091531","RCS_SIZE":"LARGE","CLASSIFICATION_TYPE":"U","NORAD_CAT_ID":"54170","EPOCH":"2022-12-21T22:00:00.999936","ECCENTRICITY":"0.00016690","MEAN_MOTION_DDOT":"0.0000000000000","GP_ID":"221122247","MEAN_MOTION":"15.37480587","MEAN_ANOMALY":"109.8054","PERIOD":"93.660","MEAN_ELEMENT_THEORY":"SGP4","EPHEMERIS_TYPE":"0","FILE":"3716751","CENTER_NAME":"EARTH","TLE_LINE2":"2 54170  53.2171 234.6165 0001669 125.8448 109.8054 15.37480587  8631","OBJECT_ID":"2022-141P","SITE":"AFWTR","OBJECT_NAME":"STARLINK-5155","INCLINATION":"53.2171","SEMIMAJOR_AXIS":"6831.699","REV_AT_EPOCH":"863","LAUNCH_DATE":"2022-10-28","OBJECT_TYPE":"PAYLOAD","PERIAPSIS":"452.424","BSTAR":"-0.03192500000000","TLE_LINE1":"1 54170U 22141P   22355.91667824 -.01091531  00000-0 -31925-1 0  9990","COUNTRY_CODE":"US","APOAPSIS":"454.705"},{"APOAPSIS":"535.261","COUNTRY_CODE":"US","TLE_LINE1":"1 54171U 22141Q   22355.91667824 -.01153790  00000-0 -74948-1 0  9999","BSTAR":"-0.07494800000000","PERIAPSIS":"533.169","LAUNCH_DATE":"2022-10-28","OBJECT_TYPE":"PAYLOAD","REV_AT_EPOCH":"859","SEMIMAJOR_AXIS":"6912.350","INCLINATION":"53.2168","OBJECT_NAME":"STARLINK-5229","SITE":"AFWTR","OBJECT_ID":"2022-141Q","TLE_LINE2":"2 54171  53.2168 238.1357 0001513 113.2087 154.3409 15.10651029  8594","CENTER_NAME":"EARTH","FILE":"3716752","EPHEMERIS_TYPE":"0","MEAN_ELEMENT_THEORY":"SGP4","PERIOD":"95.323","MEAN_ANOMALY":"154.3409","MEAN_MOTION":"15.10651029","GP_ID":"221122767","MEAN_MOTION_DDOT":"0.0000000000000","ECCENTRICITY":"0.00015130","EPOCH":"2022-12-21T22:00:00.999936","NORAD_CAT_ID":"54171","CLASSIFICATION_TYPE":"U","RCS_SIZE":"LARGE","MEAN_MOTION_DOT":"-0.01153790","ARG_OF_PERICENTER":"113.2087","RA_OF_ASC_NODE":"238.1357","TIME_SYSTEM":"UTC","REF_FRAME":"TEME","DECAY_DATE":null,"ELEMENT_SET_NO":"999"},{"COUNTRY_CODE":"US","APOAPSIS":"450.123","REV_AT_EPOCH":"130","LAUNCH_DATE":"2022-10-28","OBJECT_TYPE":"PAYLOAD","PERIAPSIS":"448.319","TLE_LINE1":"1 54172U 22141R   22355.58334491 -.01142196  00000-0 -31971-1 0  9991","BSTAR":"-0.03197100000000","OBJECT_ID":"2022-141R","OBJECT_NAME":"STARLINK-5117","SITE":"AFWTR","INCLINATION":"53.2172","SEMIMAJOR_AXIS":"6827.356","FILE":"3716551","CENTER_NAME":"EARTH","TLE_LINE2":"2 54172  53.2172 236.1532 0001321  94.1879 107.7530 15.38948060  1309","MEAN_ANOMALY":"107.7530","PERIOD":"93.570","EPHEMERIS_TYPE":"0","MEAN_ELEMENT_THEORY":"SGP4","ECCENTRICITY":"0.00013210","GP_ID":"221121197","MEAN_MOTION":"15.38948060","MEAN_MOTION_DDOT":"0.0000000000000","CLASSIFICATION_TYPE":"U","RCS_SIZE":"LARGE","NORAD_CAT_ID":"54172","EPOCH":"2022-12-21T14:00:01.000224","REF_FRAME":"TEME","DECAY_DATE":null,"ELEMENT_SET_NO":"999","TIME_SYSTEM":"UTC","MEAN_MOTION_DOT":"-0.01142196","ARG_OF_PERICENTER":"94.1879","RA_OF_ASC_NODE":"236.1532"}];
